ONEWEB-0281             
1 48999U 21060AJ  23364.18688199  .00000059  00000+0  12045-3 0  9994
2 48999  87.9062  47.8932 0001538  98.2125 261.9181 13.16593448122513
ONEWEB-0282             
1 49000U 21060AK  23364.14043060  .00000083  00000+0  18446-3 0  9994
2 49000  87.9065  47.9189 0002153 105.0004 255.1365 13.16594767122493
ONEWEB-0283             
1 49001U 21060AL  23364.50986499  .00000096  00000+0  21716-3 0  9995
2 49001  87.9055  47.8556 0001862 110.5388 249.5943 13.16595238122552
ONEWEB-0284             
1 49002U 21060AM  23363.66757602  .00000150  00000+0  35774-3 0  9994
2 49002  87.9050  48.0172 0002039 101.6045 258.5315 13.16596805121107
ONEWEB-0285             
1 49075U 21075A   23364.46267136  .00000457  00000+0  12340-2 0  9990
2 49075  87.9004 169.6413 0001555  94.6252 265.5054 13.12442176118175
ONEWEB-0286             
1 49076U 21075B   23363.97649471 -.00000259  00000+0 -75529-3 0  9993
2 49076  87.8998 169.7457 0001373  78.3395 281.7888 13.12443769117466
ONEWEB-0287             
1 49077U 21075C   23364.01981651  .00000025  00000+0  31788-4 0  9998
2 49077  87.9194 184.8380 0001793  79.7311 280.4022 13.17646959116059
ONEWEB-0288             
1 49078U 21075D   23364.03684793 -.00000369  00000+0 -10607-2 0  9996
2 49078  87.8997 169.7381 0001643  89.4030 270.7287 13.12441133118108
